IRIDIUM 921             
1 24873U 97034E   24226.83723495  .00058374  00000+0  12764-2 0  9992
2 24873  86.3758 259.4725 0004652  68.7583 291.4169 15.43925837484062
IRIDIUM 26              
1 24903U 97043A   24226.79896169  .00001613  00000+0  54358-3 0  9990
2 24903  86.3923 239.5741 0002424  86.3411 273.8063 14.36486078412606
IRIDIUM 22              
1 24907U 97043E   24226.96897004  .00001467  00000+0  50487-3 0  9998
2 24907  86.3923 242.7857 0002263  91.2145 268.9311 14.35370405412699
DUMMY MASS 1            
1 24925U 97048A   24226.89174089  .00001455  00000+0  16197-3 0  9993
2 24925  86.3316 277.3236 0008079 140.2351 219.9467 14.86339732459474
DUMMY MASS 2            
1 24926U 97048B   24226.87043047  .00001452  00000+0  16261-3 0  9990
2 24926  86.3317 278.8874 0008476 151.2266 208.9427 14.86097065459258
IRIDIUM 29              
1 24944U 97051A   24226.39617534  .00001168  00000+0  39688-3 0  9991
2 24944  86.3920 272.9163 0002259  99.0122 261.1331 14.35820999409318
IRIDIUM 33              
1 24946U 97051C   24226.82580619  .00000966  00000+0  33626-3 0  9995
2 24946  86.3833 271.9838 0008220  17.5602 342.5876 14.34452026408681
IRIDIUM 28              
1 24948U 97051E   24226.84960703  .00001455  00000+0  48687-3 0  9992
2 24948  86.3922 270.4147 0002400  81.9302 278.2168 14.36779667409770
